[{"COMMENT":"GENERATED VIA SPACETRACK.ORG API","ORIGINATOR":"18 SPCS","NORAD_CAT_ID":"43476","OBJECT_NAME":"GRACE-FO 1","OBJECT_TYPE":"PAYLOAD","CLASSIFICATION_TYPE":"U","INTLDES":"18047A","EPOCH":"2023-11-19 22:51:11","EPOCH_MICROSECONDS":"97792","MEAN_MOTION":"15.27359048","ECCENTRICITY":"0.0015026","INCLINATION":"88.9816","RA_OF_ASC_NODE":"327.9809","ARG_OF_PERICENTER":"147.1526","MEAN_ANOMALY":"213.0661","EPHEMERIS_TYPE":"0","ELEMENT_SET_NO":"999","REV_AT_EPOCH":"30576","BSTAR":"0.000088002","MEAN_MOTION_DOT":"0.00002394","MEAN_MOTION_DDOT":"0","FILE":"4097440","TLE_LINE0":"0 GRACE-FO 1","TLE_LINE1":"1 43476U 18047A   23323.95221178  .00002394  00000-0  88002-4 0  9992","TLE_LINE2":"2 43476  88.9816 327.9809 0015026 147.1526 213.0661 15.27359048305768","OBJECT_ID":"2018-047A","OBJECT_NUMBER":"43476","SEMIMAJOR_AXIS":"6861.848","PERIOD":"94.280","APOGEE":"494.023","PERIGEE":"473.402","DECAYED":"0"},{"COMMENT":"GENERATED VIA SPACETRACK.ORG API","ORIGINATOR":"18 SPCS","NORAD_CAT_ID":"43476","OBJECT_NAME":"GRACE-FO 1","OBJECT_TYPE":"PAYLOAD","CLASSIFICATION_TYPE":"U","INTLDES":"18047A","EPOCH":"2023-11-20 13:00:18","EPOCH_MICROSECONDS":"184896","MEAN_MOTION":"15.2736317","ECCENTRICITY":"0.0015128","INCLINATION":"88.9816","RA_OF_ASC_NODE":"327.9001","ARG_OF_PERICENTER":"145.1613","MEAN_ANOMALY":"215.063","EPHEMERIS_TYPE":"0","ELEMENT_SET_NO":"999","REV_AT_EPOCH":"30585","BSTAR":"0.00010192","MEAN_MOTION_DOT":"0.00002768","MEAN_MOTION_DDOT":"0","FILE":"4098394","TLE_LINE0":"0 GRACE-FO 1","TLE_LINE1":"1 43476U 18047A   23324.54187714  .00002768  00000-0  10192-3 0  9994","TLE_LINE2":"2 43476  88.9816 327.9001 0015128 145.1613 215.0630 15.27363170305859","OBJECT_ID":"2018-047A","OBJECT_NUMBER":"43476","SEMIMAJOR_AXIS":"6861.835","PERIOD":"94.280","APOGEE":"494.081","PERIGEE":"473.320","DECAYED":"0"},{"COMMENT":"GENERATED VIA SPACETRACK.ORG API","ORIGINATOR":"18 SPCS","NORAD_CAT_ID":"43476","OBJECT_NAME":"GRACE-FO 1","OBJECT_TYPE":"PAYLOAD","CLASSIFICATION_TYPE":"U","INTLDES":"18047A","EPOCH":"2023-11-20 20:52:02","EPOCH_MICROSECONDS":"57664","MEAN_MOTION":"15.27364703","ECCENTRICITY":"0.0015186","INCLINATION":"88.9816","RA_OF_ASC_NODE":"327.8552","ARG_OF_PERICENTER":"144.0576","MEAN_ANOMALY":"216.1698","EPHEMERIS_TYPE":"0","ELEMENT_SET_NO":"999","REV_AT_EPOCH":"30590","BSTAR":"0.000097661","MEAN_MOTION_DOT":"0.00002653","MEAN_MOTION_DDOT":"0","FILE":"4099015","TLE_LINE0":"0 GRACE-FO 1","TLE_LINE1":"1 43476U 18047A   23324.86946826  .00002653  00000-0  97661-4 0  9996","TLE_LINE2":"2 43476  88.9816 327.8552 0015186 144.0576 216.1698 15.27364703305904","OBJECT_ID":"2018-047A","OBJECT_NUMBER":"43476","SEMIMAJOR_AXIS":"6861.831","PERIOD":"94.280","APOGEE":"494.116","PERIGEE":"473.275","DECAYED":"0"},{"COMMENT":"GENERATED VIA SPACETRACK.ORG API","ORIGINATOR":"18 SPCS","NORAD_CAT_ID":"43476","OBJECT_NAME":"GRACE-FO 1","OBJECT_TYPE":"PAYLOAD","CLASSIFICATION_TYPE":"U","INTLDES":"18047A","EPOCH":"2023-11-21 03:09:25","EPOCH_MICROSECONDS":"137216","MEAN_MOTION":"15.27366295","ECCENTRICITY":"0.0015236","INCLINATION":"88.9815","RA_OF_ASC_NODE":"327.8193","ARG_OF_PERICENTER":"143.1852","MEAN_ANOMALY":"217.0446","EPHEMERIS_TYPE":"0","ELEMENT_SET_NO":"999","REV_AT_EPOCH":"30594","BSTAR":"0.000099771","MEAN_MOTION_DOT":"0.0000271","MEAN_MOTION_DDOT":"0","FILE":"4099044","TLE_LINE0":"0 GRACE-FO 1","TLE_LINE1":"1 43476U 18047A   23325.13154094  .00002710  00000-0  99771-4 0  9993","TLE_LINE2":"2 43476  88.9815 327.8193 0015236 143.1852 217.0446 15.27366295305940","OBJECT_ID":"2018-047A","OBJECT_NUMBER":"43476","SEMIMAJOR_AXIS":"6861.826","PERIOD":"94.280","APOGEE":"494.146","PERIGEE":"473.236","DECAYED":"0"},{"COMMENT":"GENERATED VIA SPACETRACK.ORG API","ORIGINATOR":"18 SPCS","NORAD_CAT_ID":"43476","OBJECT_NAME":"GRACE-FO 1","OBJECT_TYPE":"PAYLOAD","CLASSIFICATION_TYPE":"U","INTLDES":"18047A","EPOCH":"2023-11-21 14:09:50","EPOCH_MICROSECONDS":"448672","MEAN_MOTION":"15.27371145","ECCENTRICITY":"0.0015312","INCLINATION":"88.9815","RA_OF_ASC_NODE":"327.7564","ARG_OF_PERICENTER":"141.606","MEAN_ANOMALY":"218.6282","EPHEMERIS_TYPE":"0","ELEMENT_SET_NO":"999","REV_AT_EPOCH":"30601","BSTAR":"0.00012711","MEAN_MOTION_DOT":"0.00003445","MEAN_MOTION_DDOT":"0","FILE":"4100115","TLE_LINE0":"0 GRACE-FO 1","TLE_LINE1":"1 43476U 18047A   23325.59016723  .00003445  00000-0  12711-3 0  9993","TLE_LINE2":"2 43476  88.9815 327.7564 0015312 141.6060 218.6282 15.27371145306014","OBJECT_ID":"2018-047A","OBJECT_NUMBER":"43476","SEMIMAJOR_AXIS":"6861.812","PERIOD":"94.280","APOGEE":"494.183","PERIGEE":"473.170","DECAYED":"0"},{"COMMENT":"GENERATED VIA SPACETRACK.ORG API","ORIGINATOR":"18 SPCS","NORAD_CAT_ID":"43476","OBJECT_NAME":"GRACE-FO 1","OBJECT_TYPE":"PAYLOAD","CLASSIFICATION_TYPE":"U","INTLDES":"18047A","EPOCH":"2023-11-21 20:27:13","EPOCH_MICROSECONDS":"444416","MEAN_MOTION":"15.27373607","ECCENTRICITY":"0.0015382","INCLINATION":"88.9816","RA_OF_ASC_NODE":"327.7206","ARG_OF_PERICENTER":"140.7396","MEAN_ANOMALY":"219.4972","EPHEMERIS_TYPE":"0","ELEMENT_SET_NO":"999","REV_AT_EPOCH":"30605","BSTAR":"0.0001451","MEAN_MOTION_DOT":"0.00003928","MEAN_MOTION_DDOT":"0","FILE":"4100393","TLE_LINE0":"0 GRACE-FO 1","TLE_LINE1":"1 43476U 18047A   23325.85223894  .00003928  00000-0  14510-3 0  9996","TLE_LINE2":"2 43476  88.9816 327.7206 0015382 140.7396 219.4972 15.27373607306051","OBJECT_ID":"2018-047A","OBJECT_NUMBER":"43476","SEMIMAJOR_AXIS":"6861.804","PERIOD":"94.279","APOGEE":"494.224","PERIGEE":"473.114","DECAYED":"0"},{"COMMENT":"GENERATED VIA SPACETRACK.ORG API","ORIGINATOR":"18 SPCS","NORAD_CAT_ID":"43476","OBJECT_NAME":"GRACE-FO 1","OBJECT_TYPE":"PAYLOAD","CLASSIFICATION_TYPE":"U","INTLDES":"18047A","EPOCH":"2023-11-22 10:36:20","EPOCH_MICROSECONDS":"48544","MEAN_MOTION":"15.27378814","ECCENTRICITY":"0.0015476","INCLINATION":"88.9815","RA_OF_ASC_NODE":"327.6398","ARG_OF_PERICENTER":"138.7429","MEAN_ANOMALY":"221.4993","EPHEMERIS_TYPE":"0","ELEMENT_SET_NO":"999","REV_AT_EPOCH":"30614","BSTAR":"0.00016062","MEAN_MOTION_DOT":"0.00004346","MEAN_MOTION_DDOT":"0","FILE":"4101244","TLE_LINE0":"0 GRACE-FO 1","TLE_LINE1":"1 43476U 18047A   23326.44189871  .00004346  00000-0  16062-3 0  9997","TLE_LINE2":"2 43476  88.9815 327.6398 0015476 138.7429 221.4993 15.27378814306140","OBJECT_ID":"2018-047A","OBJECT_NUMBER":"43476","SEMIMAJOR_AXIS":"6861.789","PERIOD":"94.279","APOGEE":"494.273","PERIGEE":"473.034","DECAYED":"0"},{"COMMENT":"GENERATED VIA SPACETRACK.ORG API","ORIGINATOR":"18 SPCS","NORAD_CAT_ID":"43476","OBJECT_NAME":"GRACE-FO 1","OBJECT_TYPE":"PAYLOAD","CLASSIFICATION_TYPE":"U","INTLDES":"18047A","EPOCH":"2023-11-22 13:45:01","EPOCH_MICROSECONDS":"477728","MEAN_MOTION":"15.2738079","ECCENTRICITY":"0.0015494","INCLINATION":"88.9815","RA_OF_ASC_NODE":"327.6219","ARG_OF_PERICENTER":"138.2828","MEAN_ANOMALY":"221.9606","EPHEMERIS_TYPE":"0","ELEMENT_SET_NO":"999","REV_AT_EPOCH":"30616","BSTAR":"0.00017444","MEAN_MOTION_DOT":"0.00004718","MEAN_MOTION_DDOT":"0","FILE":"4101817","TLE_LINE0":"0 GRACE-FO 1","TLE_LINE1":"1 43476U 18047A   23326.57293377  .00004718  00000-0  17444-3 0  9996","TLE_LINE2":"2 43476  88.9815 327.6219 0015494 138.2828 221.9606 15.27380790306164","OBJECT_ID":"2018-047A","OBJECT_NUMBER":"43476","SEMIMAJOR_AXIS":"6861.783","PERIOD":"94.279","APOGEE":"494.279","PERIGEE":"473.016","DECAYED":"0"},{"COMMENT":"GENERATED VIA SPACETRACK.ORG API","ORIGINATOR":"18 SPCS","NORAD_CAT_ID":"43476","OBJECT_NAME":"GRACE-FO 1","OBJECT_TYPE":"PAYLOAD","CLASSIFICATION_TYPE":"U","INTLDES":"18047A","EPOCH":"2023-11-22 20:02:24","EPOCH_MICROSECONDS":"355968","MEAN_MOTION":"15.27383055","ECCENTRICITY":"0.0015529","INCLINATION":"88.9814","RA_OF_ASC_NODE":"327.586","ARG_OF_PERICENTER":"137.3918","MEAN_ANOMALY":"222.854","EPHEMERIS_TYPE":"0","ELEMENT_SET_NO":"999","REV_AT_EPOCH":"30620","BSTAR":"0.00018111","MEAN_MOTION_DOT":"0.00004897","MEAN_MOTION_DDOT":"0","FILE":"4102346","TLE_LINE0":"0 GRACE-FO 1","TLE_LINE1":"1 43476U 18047A   23326.83500412  .00004897  00000-0  18111-3 0  9996","TLE_LINE2":"2 43476  88.9814 327.5860 0015529 137.3918 222.8540 15.27383055306202","OBJECT_ID":"2018-047A","OBJECT_NUMBER":"43476","SEMIMAJOR_AXIS":"6861.776","PERIOD":"94.279","APOGEE":"494.297","PERIGEE":"472.985","DECAYED":"0"},{"COMMENT":"GENERATED VIA SPACETRACK.ORG API","ORIGINATOR":"18 SPCS","NORAD_CAT_ID":"43476","OBJECT_NAME":"GRACE-FO 1","OBJECT_TYPE":"PAYLOAD","CLASSIFICATION_TYPE":"U","INTLDES":"18047A","EPOCH":"2023-11-23 11:45:51","EPOCH_MICROSECONDS":"306624","MEAN_MOTION":"15.27389503","ECCENTRICITY":"0.0015637","INCLINATION":"88.9812","RA_OF_ASC_NODE":"327.4963","ARG_OF_PERICENTER":"135.2321","MEAN_ANOMALY":"225.0193","EPHEMERIS_TYPE":"0","ELEMENT_SET_NO":"999","REV_AT_EPOCH":"30630","BSTAR":"0.00019266","MEAN_MOTION_DOT":"0.00005209","MEAN_MOTION_DDOT":"0","FILE":"4102980","TLE_LINE0":"0 GRACE-FO 1","TLE_LINE1":"1 43476U 18047A   23327.49017716  .00005209  00000-0  19266-3 0  9999","TLE_LINE2":"2 43476  88.9812 327.4963 0015637 135.2321 225.0193 15.27389503306302","OBJECT_ID":"2018-047A","OBJECT_NUMBER":"43476","SEMIMAJOR_AXIS":"6861.757","PERIOD":"94.279","APOGEE":"494.351","PERIGEE":"472.892","DECAYED":"0"}]